NORAD_CAT_ID,OBJECT_NAME,OBJECT_TYPE,EPOCH,MEAN_MOTION,ECCENTRICITY,INCLINATION,RA_OF_ASC_NODE,ARG_OF_PERICENTER,MEAN_ANOMALY,BSTAR,MEAN_MOTION_DOT,MEAN_MOTION_DDOT,TLE_LINE0,TLE_LINE1,TLE_LINE2,SEMIMAJOR_AXIS,PERIOD,APOGEE,PERIGEE,DECAYED
53931.0,STARLINK-5015,PAYLOAD,2022-10-17 12:00:00,15.73178133,0.0001075,53.2154,141.4351,68.8462,44.1306,0.00067479,0.0009507,0.0,0 STARLINK-5015,1 53931U 22119AX  22290.50001157  .00095070  00000-0  67479-3 0  9997,2 53931  53.2154 141.4351 0001075  68.8462  44.1306 15.73178133  3986,6727.958000000001,91.534,350.546,349.099,0.0
53931.0,STARLINK-5015,PAYLOAD,2022-10-17 14:00:01,15.73192274,0.0001147999999999,53.2156,141.0207,71.0879,154.1183,0.00071511,0.0010092,0.0,0 STARLINK-5015,1 53931U 22119AX  22290.58334491  .00100920  00000-0  71511-3 0  9998,2 53931  53.2156 141.0207 0001148  71.0879 154.1183 15.73192274  1304,6727.917,91.534,350.555,349.01,0.0
53931.0,STARLINK-5015,PAYLOAD,2022-10-17 22:00:00,15.73234155,0.0001245,53.2157,139.3754,56.9562,257.1699,-0.00029829,-0.00042333,0.0,0 STARLINK-5015,1 53931U 22119AX  22290.91667824 -.00042333  00000-0 -29829-3 0  9994,2 53931  53.2157 139.3754 0001245  56.9562 257.1699 15.73234155  4046,6727.7980000000025,91.531,350.5,348.825,0.0
53931.0,STARLINK-5015,PAYLOAD,2022-10-18 14:00:01,15.73128022,9.86e-05,53.2158,136.0746,61.4112,70.575,0.00034626,0.00048104,0.0,0 STARLINK-5015,1 53931U 22119AX  22291.58334491  .00048104  00000-0  34626-3 0  9990,2 53931  53.2158 136.0746 0000986  61.4112  70.5750 15.73128022  1301,6728.1,91.537,350.629,349.302,0.0
53931.0,STARLINK-5015,PAYLOAD,2022-10-18 20:00:01,15.73205009,0.0001568,53.2174,134.8198,68.1332,40.5615,-9.2669e-06,-1.921e-05,0.0,0 STARLINK-5015,1 53931U 22119AX  22291.83334491 -.00001921  00000-0 -92669-5 0  9999,2 53931  53.2174 134.8198 0001568  68.1332  40.5615 15.73205009  4199,6727.880999999999,91.533,350.801,348.691,0.0
53931.0,STARLINK-5015,PAYLOAD,2022-10-18 22:00:00,15.73204482,0.0001557,53.2175,134.4077,67.7334,153.1949,-7.8105e-07,-7.299999999999999e-06,0.0,0 STARLINK-5015,1 53931U 22119AX  22291.91667824 -.00000730  00000-0 -78105-6 0  9994,2 53931  53.2175 134.4077 0001557  67.7334 153.1949 15.73204482  1302,6727.882,91.533,350.795,348.7,0.0
53931.0,STARLINK-5015,PAYLOAD,2022-10-19 06:00:00,15.73218031,0.0001019,53.2151,132.7767,49.3194,260.4389,0.00015361,0.00021009,0.0,0 STARLINK-5015,1 53931U 22119AX  22292.25001157  .00021009  00000-0  15361-3 0  9995,2 53931  53.2151 132.7767 0001019  49.3194 260.4389 15.73218031  4258,6727.844,91.532,350.394,349.023,0.0
53931.0,STARLINK-5015,PAYLOAD,2022-10-19 14:00:01,15.73298424,0.0001042999999999,53.2154,131.1264,52.905,345.8309,-0.00029758,-0.00042348,0.0,0 STARLINK-5015,1 53931U 22119AX  22292.58334491 -.00042348  00000-0 -29758-3 0  9997,2 53931  53.2154 131.1264 0001043  52.9050 345.8309 15.73298424  4315,6727.615,91.527,350.181,348.778,0.0
53931.0,STARLINK-5015,PAYLOAD,2022-10-19 22:00:00,15.73232576,0.0001210999999999,53.2163,129.4691,54.8633,72.8223,-4.674e-05,-7.183e-05,0.0,0 STARLINK-5015,1 53931U 22119AX  22292.91667824 -.00007183  00000-0 -46740-4 0  9992,2 53931  53.2163 129.4691 0001211  54.8633  72.8223 15.73232576  4367,6727.802,91.531,350.482,348.853,0.0
53931.0,STARLINK-5015,PAYLOAD,2022-10-20 06:00:00,15.73271539,0.00013,53.2154,127.8278,49.6523,167.0853,-0.00078541,-0.00109755,0.0,0 STARLINK-5015,1 53931U 22119AX  22293.25001157 -.00109755  00000-0 -78541-3 0  9992,2 53931  53.2154 127.8278 0001300  49.6523 167.0853 15.73271539  4413,6727.691,91.529,350.431,348.682,0.0
53931.0,STARLINK-5015,PAYLOAD,2022-10-20 14:00:01,15.73206528,0.0001231999999999,53.2154,126.1778,53.1696,252.527,-0.00040287,-0.00056795,0.0,0 STARLINK-5015,1 53931U 22119AX  22293.58334491 -.00056795  00000-0 -40287-3 0  9999,2 53931  53.2154 126.1778 0001232  53.1696 252.5270 15.73206528  1309,6727.877,91.533,350.57,348.913,0.0
53931.0,STARLINK-5015,PAYLOAD,2022-10-20 20:00:01,15.73158558,0.0001418,53.215,124.9414,45.1232,237.2681,-0.00015974,-0.00022937,0.0,0 STARLINK-5015,1 53931U 22119AX  22293.83334491 -.00022937  00000-0 -15974-3 0  9993,2 53931  53.2150 124.9414 0001418  45.1232 237.2681 15.73158558  4501,6728.013000000001,91.536,350.832,348.9240000000001,0.0
53931.0,STARLINK-5015,PAYLOAD,2022-10-20 22:00:00,15.73117525,0.0001389,53.2152,124.5271,43.4786,351.144,0.00046599,0.00065055,0.0,0 STARLINK-5015,1 53931U 22119AX  22293.91667824  .00065055  00000-0  46599-3 0  9994,2 53931  53.2152 124.5271 0001389  43.4786 351.1440 15.73117525  1305,6728.13,91.538,350.93,349.061,0.0
53931.0,STARLINK-5015,PAYLOAD,2022-10-21 06:00:00,15.73176058,0.0001161999999999,53.2149,122.8785,41.1904,82.2989,0.00025988,0.00035971,0.0,0 STARLINK-5015,1 53931U 22119AX  22294.25001157  .00035971  00000-0  25988-3 0  9996,2 53931  53.2149 122.8785 0001162  41.1904  82.2989 15.73176058  4576,6727.9630000000025,91.535,350.61,349.047,0.0
53931.0,STARLINK-5015,PAYLOAD,2022-10-21 14:00:01,15.73234244,0.0001171999999999,53.2152,121.2287,48.3523,164.0709,0.00042662,0.00059768,0.0,0 STARLINK-5015,1 53931U 22119AX  22294.58334491  .00059768  00000-0  42662-3 0  9990,2 53931  53.2152 121.2287 0001172  48.3523 164.0709 15.73234244  4624,6727.7980000000025,91.531,350.451,348.874,0.0
53931.0,STARLINK-5015,PAYLOAD,2022-10-21 20:00:01,15.73274296,0.0001501999999999,53.2147,119.9938,43.4054,145.7181,-0.00075162,-0.00105133,0.0,0 STARLINK-5015,1 53931U 22119AX  22294.83334491 -.00105133  00000-0 -75162-3 0  9999,2 53931  53.2147 119.9938 0001502  43.4054 145.7181 15.73274296  4662,6727.683000000001,91.529,350.559,348.538,0.0
53931.0,STARLINK-5015,PAYLOAD,2022-10-21 22:00:00,15.73251178,0.0001564,53.2148,119.5818,43.4752,257.9014,-0.00064687,-0.00090633,0.0,0 STARLINK-5015,1 53931U 22119AX  22294.91667824 -.00090633  00000-0 -64687-3 0  9995,2 53931  53.2148 119.5818 0001564  43.4752 257.9014 15.73251178  1302,6727.749,91.53,350.666,348.56199999999984,0.0
53931.0,STARLINK-5015,PAYLOAD,2022-10-22 14:00:01,15.73224344,0.0001616,53.2146,116.2808,53.6554,65.5753,2.5487e-05,2.961e-05,0.0,0 STARLINK-5015,1 53931U 22119AX  22295.58334491  .00002961  00000-0  25487-4 0  9991,2 53931  53.2146 116.2808 0001616  53.6554  65.5753 15.73224344  4787,6727.826,91.532,350.778,348.60400000000016,0.0
53931.0,STARLINK-5015,PAYLOAD,2022-10-22 22:00:00,15.73192935,0.0001679,53.2141,114.6329,40.2375,167.9775,0.00067007,0.00094456,0.0,0 STARLINK-5015,1 53931U 22119AX  22295.91667824  .00094456  00000-0  67007-3 0  9990,2 53931  53.2141 114.6329 0001679  40.2375 167.9775 15.73192935  1300,6727.915,91.534,350.91,348.651,0.0
53931.0,STARLINK-5015,PAYLOAD,2022-10-23 06:00:00,15.73268833,0.0001373,53.2138,112.9814,40.4805,256.7038,-0.00012608,-0.00018329,0.0,0 STARLINK-5015,1 53931U 22119AX  22296.25001157 -.00018329  00000-0 -12608-3 0  9993,2 53931  53.2138 112.9814 0001373  40.4805 256.7038 15.73268833  4883,6727.699000000001,91.529,350.48800000000006,348.64,0.0
53931.0,STARLINK-5015,PAYLOAD,2022-10-23 12:00:00,15.7324613,0.0001274,53.2139,111.7436,42.2692,231.6388,-3.0662e-05,-4.929e-05,0.0,0 STARLINK-5015,1 53931U 22119AX  22296.50001157 -.00004929  00000-0 -30662-4 0  9993,2 53931  53.2139 111.7436 0001274  42.2692 231.6388 15.73246130  4926,6727.764,91.53,350.486,348.772,0.0
53931.0,STARLINK-5015,PAYLOAD,2022-10-23 14:00:01,15.73278007,0.0001361,53.214,111.3318,40.7071,345.4367,-0.00055776,-0.00078433,0.0,0 STARLINK-5015,1 53931U 22119AX  22296.58334491 -.00078433  00000-0 -55776-3 0  9994,2 53931  53.2140 111.3318 0001361  40.7071 345.4367 15.73278007  1302,6727.6730000000025,91.529,350.45300000000015,348.622,0.0
53931.0,STARLINK-5015,PAYLOAD,2022-10-23 22:00:00,15.73215454,0.0001615,53.2141,109.6837,35.0707,80.0657,-0.00025321,-0.00036029,0.0,0 STARLINK-5015,1 53931U 22119AX  22296.91667824 -.00036029  00000-0 -25321-3 0  9998,2 53931  53.2141 109.6837 0001615  35.0707  80.0657 15.73215454  4993,6727.851,91.532,350.80300000000005,348.63,0.0
53931.0,STARLINK-5015,PAYLOAD,2022-10-24 12:00:00,15.73088824,0.0001463,53.2142,106.7947,39.934,140.7967,0.00021315,0.00029257,0.0,0 STARLINK-5015,1 53931U 22119AX  22297.50001157  .00029257  00000-0  21315-3 0  9997,2 53931  53.2142 106.7947 0001463  39.9340 140.7967 15.73088824  5089,6728.212,91.54,351.061,349.093,0.0
53931.0,STARLINK-5015,PAYLOAD,2022-10-24 14:00:01,15.73092287,0.00015,53.2141,106.3829,36.8366,256.0948,0.000205,0.00028115,0.0,0 STARLINK-5015,1 53931U 22119AX  22297.58334491  .00028115  00000-0  20500-3 0  9992,2 53931  53.2141 106.3829 0001500  36.8366 256.0948 15.73092287  1308,6728.2019999999975,91.539,351.077,349.05800000000005,0.0
53931.0,STARLINK-5015,PAYLOAD,2022-10-24 22:00:00,15.73060552,0.0001665,53.2135,104.7351,28.4221,353.3216,0.0014962,0.00213508,0.0,0 STARLINK-5015,1 53931U 22119AX  22297.91667824  .00213508  00000-0  14962-2 0  9994,2 53931  53.2135 104.7351 0001665  28.4221 353.3216 15.73060552  1301,6728.293000000002,91.541,351.278,349.038,0.0
53931.0,STARLINK-5015,PAYLOAD,2022-10-25 06:00:00,15.731972099999998,0.0001365,53.2135,103.0836,24.6827,85.9112,0.00054742,0.00076904,0.0,0 STARLINK-5015,1 53931U 22119AX  22298.25001157  .00076904  00000-0  54742-3 0  9991,2 53931  53.2135 103.0836 0001365  24.6827  85.9112 15.73197210  5206,6727.903,91.533,350.686,348.85,0.0
53931.0,STARLINK-5015,PAYLOAD,2022-10-25 14:00:01,15.732871,0.0001529,53.2139,101.4345,31.406,168.1315,-0.00064629,-0.0009068999999999,0.0,0 STARLINK-5015,1 53931U 22119AX  22298.58334491 -.00090690  00000-0 -64629-3 0  9992,2 53931  53.2139 101.4345 0001529  31.4060 168.1315 15.73287100  1308,6727.647,91.528,350.541,348.483,0.0
53931.0,STARLINK-5015,PAYLOAD,2022-10-25 20:00:01,15.73219166,0.0001873,53.2141,100.1986,31.1319,145.1647,-0.00019913,-0.00028498,0.0,0 STARLINK-5015,1 53931U 22119AX  22298.83334491 -.00028498  00000-0 -19913-3 0  9993,2 53931  53.2141 100.1986 0001873  31.1319 145.1647 15.73219166  5296,6727.840999999999,91.532,350.966,348.445,0.0
